OBJECT_NAME,OBJECT_ID,EPOCH,MEAN_MOTION,ECCENTRICITY,INCLINATION,RA_OF_ASC_NODE,ARG_OF_PERICENTER,MEAN_ANOMALY,EPHEMERIS_TYPE,CLASSIFICATION_TYPE,NORAD_CAT_ID,ELEMENT_SET_NO,REV_AT_EPOCH,BSTAR,MEAN_MOTION_DOT,MEAN_MOTION_DDOT
STARLINK-2272,2021-024AL,2021-10-02T01:11:38.146848,15.06396564,.0001336,53.0561,27.4478,111.5845,248.5286,0,U,48011,999,3072,.83904E-4,.968E-5,0
STARLINK-2216,2021-024AM,2021-10-01T18:56:48.895584,15.06406579,.0001246,53.0558,3.6183,107.2641,252.8484,0,U,48012,999,3051,.10479E-3,.128E-4,0
STARLINK-2243,2021-024AN,2021-10-02T00:02:56.362272,15.02318205,.0001202,53.0553,11.9741,114.3061,245.8052,0,U,48013,999,3088,.13585E-3,.1544E-4,0
STARLINK-2283,2021-024AP,2021-10-02T14:00:01.000224,15.23461791,.0002114,53.0503,333.9355,28.2987,94.5329,0,U,48014,999,3099,-.41583E-1,-.930264E-2,0
STARLINK-2281,2021-024AQ,2021-10-02T08:00:01.000224,15.73273418,.0001681,53.0449,330.1131,35.9882,70.1025,0,U,48015,999,368,-.76458E-3,-.106931E-2,0
STARLINK-2284,2021-024AR,2021-10-02T14:00:01.000224,15.73186307,.0005169,53.0446,329.1781,340.3460,314.1440,0,U,48016,999,3105,.54133E-3,.76057E-3,0
STARLINK-2239,2021-024AS,2021-10-02T00:52:23.726208,15.06405863,.0001497,53.0570,32.5184,98.4449,261.6709,0,U,48017,999,3059,.68692E-4,.742E-5,0
STARLINK-2282,2021-024AT,2021-10-02T11:06:16.481664,15.05586595,.0001404,53.0515,30.3752,107.2681,252.8461,0,U,48018,999,3019,.19792E-3,.2606E-4,0
STARLINK-2285,2021-024AU,2021-10-01T17:23:57.017472,15.06395238,.0001096,53.0583,23.9138,107.9724,252.1385,0,U,48019,999,3022,-.80425E-4,-.1479E-4,0
STARLINK-2294,2021-024AV,2021-10-02T08:00:01.000224,15.16380187,.0001654,53.0417,336.3504,45.4602,256.9692,0,U,48020,999,364,-.48703E-1,-.888573E-2,0
STARLINK-2301,2021-024AW,2021-10-02T10:38:57.112512,15.06432642,.0001037,53.0533,340.6826,64.8544,295.2553,0,U,48021,999,3089,-.50008E-3,-.7729E-4,0
STARLINK-2298,2021-024AX,2021-10-02T01:07:01.242624,15.06397314,.0001598,53.0603,42.4797,112.1005,248.0154,0,U,48022,999,3051,-.94706E-4,-.1692E-4,0
STARLINK-2292,2021-024AY,2021-10-02T01:29:35.438208,15.06394012,.0001151,53.0563,42.3967,97.8748,262.2372,0,U,48023,999,3051,.43842E-4,.372E-5,0
STARLINK-2302,2021-024AZ,2021-10-02T08:00:01.000224,15.73258512,.0007961,53.0449,330.1154,288.1256,178.6119,0,U,48024,999,367,-.59776E-3,-.84094E-3,0
STARLINK-2318,2021-024BA,2021-10-02T08:00:01.000224,15.73237356,.0002794,53.0447,330.1095,342.8755,124.4384,0,U,48025,999,367,-.17935E-4,-.3145E-4,0
STARLINK-2278,2021-024BB,2021-10-02T08:57:24.969888,15.06397216,.0000727,53.0153,46.2500,104.6887,255.4182,0,U,48026,999,2995,-.39568E-5,-.34E-5,0
STARLINK-2300,2021-024BC,2021-10-02T11:10:46.951680,15.06393944,.0001487,53.0576,20.5901,91.8257,268.2902,0,U,48027,999,3032,.12049E-3,.1513E-4,0
STARLINK-2264,2021-024BD,2021-10-02T08:00:01.000224,15.15532420,.0001858,53.0409,336.3231,38.0581,179.3975,0,U,48028,999,362,-.50823E-1,-.903877E-2,0
STARLINK-2299,2021-024BE,2021-10-01T23:22:11.879904,15.06401861,.0001489,53.0564,42.8075,104.1657,255.9497,0,U,48029,999,3050,.14326E-3,.1853E-4,0
STARLINK-2268,2021-024BF,2021-10-02T01:36:54.150624,15.06392597,.000112,53.0557,47.3720,108.2903,251.8208,0,U,48030,999,3038,-.46208E-4,-.969E-5,0
STARLINK-2267,2021-024BG,2021-10-02T14:00:01.000224,15.73219387,.0004797,53.0450,329.1574,346.7646,317.2290,0,U,48031,999,3105,-.16276E-3,-.23445E-3,0
STARLINK-2297,2021-024BH,2021-10-02T14:00:01.000224,15.73170317,.0004919,53.0450,329.1533,342.7630,321.9052,0,U,48032,999,3105,.48807E-3,.68398E-3,0
STARLINK-2286,2021-024BJ,2021-10-02T08:54:04.120128,15.06399347,.0001403,53.0572,41.0326,103.0964,257.0182,0,U,48033,999,3003,.12102E-3,.1522E-4,0
STARLINK-2288,2021-024BK,2021-10-02T10:41:35.367936,15.06392109,.0001235,53.0574,40.6847,102.6605,257.4522,0,U,48034,999,3004,-.77891E-6,-.293E-5,0
STARLINK-2287,2021-024BL,2021-10-02T08:00:01.000224,15.73239960,.0005485,53.0455,330.3953,335.7809,354.0569,0,U,48035,999,368,-.59329E-3,-.83313E-3,0
STARLINK-2295,2021-024BM,2021-10-02T01:18:58.544064,15.06394038,.0001217,53.0586,42.4455,119.7821,240.3289,0,U,48036,999,3051,.44218E-4,.377E-5,0
BCCSAT-1,2021-022AK,2021-10-02T04:34:00.007104,15.06803930,.0014521,97.5472,175.4027,301.9699,58.0116,0,U,48041,999,2792,.15338E-3,.2227E-4,0
ONEWEB-0115,2021-025A,2021-10-02T03:38:09.441024,13.13468776,.0001456,87.8866,301.8151,90.9057,269.2238,0,U,48042,999,2793,.74163E-3,.284E-5,0
ONEWEB-0152,2021-025B,2021-10-02T11:15:13.220928,13.13467971,.0001744,87.8830,301.7223,99.2174,260.9153,0,U,48043,999,2794,.98224E-4,.49E-6,0
ONEWEB-0153,2021-025C,2021-10-02T10:41:40.456896,13.13473009,.0001871,87.8975,301.9035,79.4833,280.6506,0,U,48044,999,2793,.78283E-3,.299E-5,0
