STARLINK-2272           
1 48011U 21024AL  21275.04974707  .00000968  00000-0  83904-4 0  9999
2 48011  53.0561  27.4478 0001336 111.5845 248.5286 15.06396564 30728
STARLINK-2216           
1 48012U 21024AM  21274.78945481  .00001280  00000-0  10479-3 0  9991
2 48012  53.0558   3.6183 0001246 107.2641 252.8484 15.06406579 30513
STARLINK-2243           
1 48013U 21024AN  21275.00204123  .00001544  00000-0  13585-3 0  9993
2 48013  53.0553  11.9741 0001202 114.3061 245.8052 15.02318205 30885
STARLINK-2283           
1 48014U 21024AP  21275.58334491 -.00930264  00000-0 -41583-1 0  9998
2 48014  53.0503 333.9355 0002114  28.2987  94.5329 15.23461791 30992
STARLINK-2281           
1 48015U 21024AQ  21275.33334491 -.00106931  00000-0 -76458-3 0  9999
2 48015  53.0449 330.1131 0001681  35.9882  70.1025 15.73273418  3681
STARLINK-2284           
1 48016U 21024AR  21275.58334491  .00076057  00000-0  54133-3 0  9996
2 48016  53.0446 329.1781 0005169 340.3460 314.1440 15.73186307 31052
STARLINK-2239           
1 48017U 21024AS  21275.03638572  .00000742  00000-0  68692-4 0  9998
2 48017  53.0570  32.5184 0001497  98.4449 261.6709 15.06405863 30590
STARLINK-2282           
1 48018U 21024AT  21275.46269076  .00002606  00000-0  19792-3 0  9992
2 48018  53.0515  30.3752 0001404 107.2681 252.8461 15.05586595 30196
STARLINK-2285           
1 48019U 21024AU  21274.72496548 -.00001479  00000-0 -80425-4 0  9998
2 48019  53.0583  23.9138 0001096 107.9724 252.1385 15.06395238 30225
STARLINK-2294           
1 48020U 21024AV  21275.33334491 -.00888573  00000-0 -48703-1 0  9994
2 48020  53.0417 336.3504 0001654  45.4602 256.9692 15.16380187  3649
STARLINK-2301           
1 48021U 21024AW  21275.44371658 -.00007729  00000-0 -50008-3 0  9992
2 48021  53.0533 340.6826 0001037  64.8544 295.2553 15.06432642 30891
STARLINK-2298           
1 48022U 21024AX  21275.04654216 -.00001692  00000-0 -94706-4 0  9990
2 48022  53.0603  42.4797 0001598 112.1005 248.0154 15.06397314 30513
STARLINK-2292           
1 48023U 21024AY  21275.06221572  .00000372  00000-0  43842-4 0  9995
2 48023  53.0563  42.3967 0001151  97.8748 262.2372 15.06394012 30517
STARLINK-2302           
1 48024U 21024AZ  21275.33334491 -.00084094  00000-0 -59776-3 0  9998
2 48024  53.0449 330.1154 0007961 288.1256 178.6119 15.73258512  3675
STARLINK-2318           
1 48025U 21024BA  21275.33334491 -.00003145  00000-0 -17935-4 0  9999
2 48025  53.0447 330.1095 0002794 342.8755 124.4384 15.73237356  3675
STARLINK-2278           
1 48026U 21024BB  21275.37320567 -.00000340  00000-0 -39568-5 0  9994
2 48026  53.0153  46.2500 0000727 104.6887 255.4182 15.06397216 29958
STARLINK-2300           
1 48027U 21024BC  21275.46582120  .00001513  00000-0  12049-3 0  9994
2 48027  53.0576  20.5901 0001487  91.8257 268.2902 15.06393944 30329
STARLINK-2264           
1 48028U 21024BD  21275.33334491 -.00903877  00000-0 -50823-1 0  9993
2 48028  53.0409 336.3231 0001858  38.0581 179.3975 15.15532420  3623
STARLINK-2299           
1 48029U 21024BE  21274.97374861  .00001853  00000-0  14326-3 0  9999
2 48029  53.0564  42.8075 0001489 104.1657 255.9497 15.06401861 30501
STARLINK-2268           
1 48030U 21024BF  21275.06729341 -.00000969  00000-0 -46208-4 0  9993
2 48030  53.0557  47.3720 0001120 108.2903 251.8208 15.06392597 30389
STARLINK-2267           
1 48031U 21024BG  21275.58334491 -.00023445  00000-0 -16276-3 0  9994
2 48031  53.0450 329.1574 0004797 346.7646 317.2290 15.73219387 31058
STARLINK-2297           
1 48032U 21024BH  21275.58334491  .00068398  00000-0  48807-3 0  9994
2 48032  53.0450 329.1533 0004919 342.7630 321.9052 15.73170317 31056
STARLINK-2286           
1 48033U 21024BJ  21275.37088102  .00001522  00000-0  12102-3 0  9992
2 48033  53.0572  41.0326 0001403 103.0964 257.0182 15.06399347 30037
STARLINK-2288           
1 48034U 21024BK  21275.44554824 -.00000293  00000-0 -77891-6 0  9995
2 48034  53.0574  40.6847 0001235 102.6605 257.4522 15.06392109 30045
STARLINK-2287           
1 48035U 21024BL  21275.33334491 -.00083313  00000-0 -59329-3 0  9997
2 48035  53.0455 330.3953 0005485 335.7809 354.0569 15.73239960  3681
STARLINK-2295           
1 48036U 21024BM  21275.05484426  .00000377  00000-0  44218-4 0  9990
2 48036  53.0586  42.4455 0001217 119.7821 240.3289 15.06394038 30510
BCCSAT-1                
1 48041U 21022AK  21275.19027786  .00002227  00000-0  15338-3 0  9997
2 48041  97.5472 175.4027 0014521 301.9699  58.0116 15.06803930 27925
ONEWEB-0115             
1 48042U 21025A   21275.15149816  .00000284  00000-0  74163-3 0  9998
2 48042  87.8866 301.8151 0001456  90.9057 269.2238 13.13468776 27937
ONEWEB-0152             
1 48043U 21025B   21275.46890302  .00000049  00000-0  98224-4 0  9990
2 48043  87.8830 301.7223 0001744  99.2174 260.9153 13.13467971 27941
ONEWEB-0153             
1 48044U 21025C   21275.44560714  .00000299  00000-0  78283-3 0  9999
2 48044  87.8975 301.9035 0001871  79.4833 280.6506 13.13473009 27937
